FENGYUN 1C DEB          
1 30444U 99025AFF 17346.34625094  .00002730  00000-0  10219-2 0  9991
2 30444  99.2722 132.1276 0243909  14.1701  15.1540 14.17544706558745
